start=new Date('2021-08-31T00:00:00.000Z').valueOf();
sats=[{"OBJECT_ID":"2020-012S","TLE_LINE1":"1 45194U 20012S   21242.45870996 -.00000714  00000-0 -29071-4 0  9994","SITE":"AFETR","CENTER_NAME":"EARTH","EPOCH":"2021-08-30T11:00:32.540544","OBJECT_TYPE":"PAYLOAD","REF_FRAME":"TEME","CLASSIFICATION_TYPE":"U","MEAN_ELEMENT_THEORY":"SGP4","FILE":"3105635","LAUNCH_DATE":"2020-02-17","ELEMENT_SET_NO":"999","ECCENTRICITY":"0.00006650","NORAD_CAT_ID":"45194","PERIOD":"95.592","ARG_OF_PERICENTER":"57.4752","MEAN_MOTION":"15.06397871","OBJECT_NAME":"STARLINK-1240","BSTAR":"-0.00002907100000","TIME_SYSTEM":"UTC","EPHEMERIS_TYPE":"0","MEAN_MOTION_DDOT":"0.0000000000000","RCS_SIZE":"LARGE","INCLINATION":"53.0538","SEMIMAJOR_AXIS":"6925.355","PERIAPSIS":"546.760","RA_OF_ASC_NODE":"263.7756","DECAY_DATE":null,"COUNTRY_CODE":"US","TLE_LINE2":"2 45194  53.0538 263.7756 0000665  57.4752 302.6301 15.06397871 85704","GP_ID":"183730830","REV_AT_EPOCH":"8570","MEAN_ANOMALY":"302.6301","APOAPSIS":"547.681","MEAN_MOTION_DOT":"-0.00000714"},{"NORAD_CAT_ID":"45195","MEAN_MOTION":"15.06398351","PERIOD":"95.592","ARG_OF_PERICENTER":"88.2701","OBJECT_NAME":"STARLINK-1241","FILE":"3105635","MEAN_ELEMENT_THEORY":"SGP4","LAUNCH_DATE":"2020-02-17","ELEMENT_SET_NO":"999","ECCENTRICITY":"0.00008200","BSTAR":"0.00011815000000","OBJECT_ID":"2020-012T","REF_FRAME":"TEME","OBJECT_TYPE":"PAYLOAD","CLASSIFICATION_TYPE":"U","TLE_LINE1":"1 45195U 20012T   21242.51767949  .00001479  00000-0  11815-3 0  9998","SITE":"AFETR","CENTER_NAME":"EARTH","EPOCH":"2021-08-30T12:25:27.507936","TLE_LINE2":"2 45195  53.0528 263.5184 0000820  88.2701 271.8381 15.06398351 85817","COUNTRY_CODE":"US","MEAN_ANOMALY":"271.8381","APOAPSIS":"547.786","MEAN_MOTION_DOT":"0.00001479","GP_ID":"183729083","REV_AT_EPOCH":"8581","EPHEMERIS_TYPE":"0","MEAN_MOTION_DDOT":"0.0000000000000","RCS_SIZE":"LARGE","TIME_SYSTEM":"UTC","PERIAPSIS":"546.651","RA_OF_ASC_NODE":"263.5184","DECAY_DATE":null,"INCLINATION":"53.0528","SEMIMAJOR_AXIS":"6925.354"},{"NORAD_CAT_ID":"45196","OBJECT_NAME":"STARLINK-1244","PERIOD":"95.592","MEAN_MOTION":"15.06399613","ARG_OF_PERICENTER":"77.0694","ELEMENT_SET_NO":"999","FILE":"3105635","LAUNCH_DATE":"2020-02-17","MEAN_ELEMENT_THEORY":"SGP4","ECCENTRICITY":"0.00005370","BSTAR":"0.00000426380000","OBJECT_ID":"2020-012U","OBJECT_TYPE":"PAYLOAD","REF_FRAME":"TEME","CLASSIFICATION_TYPE":"U","CENTER_NAME":"EARTH","SITE":"AFETR","TLE_LINE1":"1 45196U 20012U   21242.50662949 -.00000218  00000-0  42638-5 0  9992","EPOCH":"2021-08-30T12:09:32.787936","TLE_LINE2":"2 45196  53.0525 263.5658 0000537  77.0694 283.0355 15.06399613 85866","COUNTRY_CODE":"US","MEAN_ANOMALY":"283.0355","APOAPSIS":"547.587","MEAN_MOTION_DOT":"-0.00000218","GP_ID":"183729333","REV_AT_EPOCH":"8586","EPHEMERIS_TYPE":"0","RCS_SIZE":"LARGE","MEAN_MOTION_DDOT":"0.0000000000000","TIME_SYSTEM":"UTC","RA_OF_ASC_NODE":"263.5658","PERIAPSIS":"546.843","DECAY_DATE":null,"INCLINATION":"53.0525","SEMIMAJOR_AXIS":"6925.350"},{"TLE_LINE2":"2 45197  53.0530 263.9049 0000947  78.5253 281.5843 15.06412031 85778","COUNTRY_CODE":"US","MEAN_MOTION_DOT":"0.00002903","APOAPSIS":"547.833","MEAN_ANOMALY":"281.5843","REV_AT_EPOCH":"8577","GP_ID":"183730584","MEAN_MOTION_DDOT":"0.0000000000000","RCS_SIZE":"LARGE","EPHEMERIS_TYPE":"0","TIME_SYSTEM":"UTC","DECAY_DATE":null,"PERIAPSIS":"546.521","RA_OF_ASC_NODE":"263.9049","SEMIMAJOR_AXIS":"6925.312","INCLINATION":"53.0530","ARG_OF_PERICENTER":"78.5253","PERIOD":"95.591","MEAN_MOTION":"15.06412031","OBJECT_NAME":"STARLINK-1269","NORAD_CAT_ID":"45197","ECCENTRICITY":"0.00009470","FILE":"3105635","LAUNCH_DATE":"2020-02-17","MEAN_ELEMENT_THEORY":"SGP4","ELEMENT_SET_NO":"999","BSTAR":"0.00021365000000","OBJECT_ID":"2020-012V","CLASSIFICATION_TYPE":"U","OBJECT_TYPE":"PAYLOAD","REF_FRAME":"TEME","EPOCH":"2021-08-30T10:18:04.052448","TLE_LINE1":"1 45197U 20012V   21242.42921357  .00002903  00000-0  21365-3 0  9999","SITE":"AFETR","CENTER_NAME":"EARTH"},{"MEAN_ANOMALY":"319.1352","MEAN_MOTION_DOT":"0.00001193","APOAPSIS":"547.735","GP_ID":"183730331","REV_AT_EPOCH":"8601","TLE_LINE2":"2 45198  53.0544 244.2548 0000738  40.9692 319.1352 15.06396462 86018","COUNTRY_CODE":"US","PERIAPSIS":"546.713","RA_OF_ASC_NODE":"244.2548","DECAY_DATE":null,"INCLINATION":"53.0544","SEMIMAJOR_AXIS":"6925.359","EPHEMERIS_TYPE":"0","MEAN_MOTION_DDOT":"0.0000000000000","RCS_SIZE":"LARGE","TIME_SYSTEM":"UTC","BSTAR":"0.00009895000000","NORAD_CAT_ID":"45198","ARG_OF_PERICENTER":"40.9692","PERIOD":"95.592","MEAN_MOTION":"15.06396462","OBJECT_NAME":"STARLINK-1154","MEAN_ELEMENT_THEORY":"SGP4","FILE":"3105635","LAUNCH_DATE":"2020-02-17","ELEMENT_SET_NO":"999","ECCENTRICITY":"0.00007380","REF_FRAME":"TEME","OBJECT_TYPE":"PAYLOAD","CLASSIFICATION_TYPE":"U","TLE_LINE1":"1 45198U 20012W   21242.35366051  .00001193  00000-0  98950-4 0  9991","SITE":"AFETR","CENTER_NAME":"EARTH","EPOCH":"2021-08-30T08:29:16.268064","OBJECT_ID":"2020-012W"},{"REV_AT_EPOCH":"8606","GP_ID":"183729583","MEAN_MOTION_DOT":"-0.00000325","APOAPSIS":"547.744","MEAN_ANOMALY":"311.7887","COUNTRY_CODE":"US","TLE_LINE2":"2 45199  53.0540 244.5379 0000762  48.3167 311.7887 15.06398973 86061","SEMIMAJOR_AXIS":"6925.352","INCLINATION":"53.0540","DECAY_DATE":null,"PERIAPSIS":"546.689","RA_OF_ASC_NODE":"244.5379","TIME_SYSTEM":"UTC","MEAN_MOTION_DDOT":"0.0000000000000","RCS_SIZE":"LARGE","EPHEMERIS_TYPE":"0","BSTAR":"-0.00000293320000","ECCENTRICITY":"0.00007620","FILE":"3105635","LAUNCH_DATE":"2020-02-17","MEAN_ELEMENT_THEORY":"SGP4","ELEMENT_SET_NO":"999","PERIOD":"95.592","ARG_OF_PERICENTER":"48.3167","MEAN_MOTION":"15.06398973","OBJECT_NAME":"STARLINK-1197","NORAD_CAT_ID":"45199","EPOCH":"2021-08-30T06:59:01.500576","TLE_LINE1":"1 45199U 20012X   21242.29098959 -.00000325  00000-0 -29332-5 0  9991","SITE":"AFETR","CENTER_NAME":"EARTH","OBJECT_TYPE":"PAYLOAD","CLASSIFICATION_TYPE":"U","REF_FRAME":"TEME","OBJECT_ID":"2020-012X"},{"DECAY_DATE":null,"RA_OF_ASC_NODE":"244.2011","PERIAPSIS":"546.649","SEMIMAJOR_AXIS":"6925.333","INCLINATION":"53.0542","RCS_SIZE":"LARGE","MEAN_MOTION_DDOT":"0.0000000000000","EPHEMERIS_TYPE":"0","TIME_SYSTEM":"UTC","MEAN_MOTION_DOT":"0.00001666","APOAPSIS":"547.746","MEAN_ANOMALY":"310.2141","REV_AT_EPOCH":"8607","GP_ID":"183729833","TLE_LINE2":"2 45201  53.0542 244.2011 0000792  49.8917 310.2141 15.06405084 86079","COUNTRY_CODE":"US","CLASSIFICATION_TYPE":"U","OBJECT_TYPE":"PAYLOAD","REF_FRAME":"TEME","EPOCH":"2021-08-30T08:45:11.999808","CENTER_NAME":"EARTH","SITE":"AFETR","TLE_LINE1":"1 45201U 20012Z   21242.36472222  .00001666  00000-0  13067-3 0  9995","OBJECT_ID":"2020-012Z","BSTAR":"0.00013067000000","OBJECT_NAME":"STARLINK-1199","ARG_OF_PERICENTER":"49.8917","PERIOD":"95.592","MEAN_MOTION":"15.06405084","NORAD_CAT_ID":"45201","ECCENTRICITY":"0.00007920","ELEMENT_SET_NO":"999","LAUNCH_DATE":"2020-02-17","FILE":"3105635","MEAN_ELEMENT_THEORY":"SGP4"},{"BSTAR":"0.00055856000000","ECCENTRICITY":"0.00012530","MEAN_ELEMENT_THEORY":"SGP4","FILE":"3105635","LAUNCH_DATE":"2020-02-17","ELEMENT_SET_NO":"999","PERIOD":"95.498","ARG_OF_PERICENTER":"70.3468","MEAN_MOTION":"15.07884342","OBJECT_NAME":"STARLINK-1203","NORAD_CAT_ID":"45202","EPOCH":"2021-08-30T11:59:10.224960","SITE":"AFETR","TLE_LINE1":"1 45202U 20012AA  21242.49942390  .00008387  00000-0  55856-3 0  9997","CENTER_NAME":"EARTH","OBJECT_TYPE":"PAYLOAD","REF_FRAME":"TEME","CLASSIFICATION_TYPE":"U","OBJECT_ID":"2020-012AA","REV_AT_EPOCH":"8587","GP_ID":"183730085","APOAPSIS":"543.535","MEAN_MOTION_DOT":"0.00008387","MEAN_ANOMALY":"289.7656","COUNTRY_CODE":"US","TLE_LINE2":"2 45202  52.9813 259.6352 0001253  70.3468 289.7656 15.07884342 85877","SEMIMAJOR_AXIS":"6920.803","INCLINATION":"52.9813","DECAY_DATE":null,"PERIAPSIS":"541.801","RA_OF_ASC_NODE":"259.6352","TIME_SYSTEM":"UTC","MEAN_MOTION_DDOT":"0.0000000000000","RCS_SIZE":"LARGE","EPHEMERIS_TYPE":"0"},{"CLASSIFICATION_TYPE":"U","OBJECT_TYPE":"PAYLOAD","REF_FRAME":"TEME","EPOCH":"2021-08-30T12:24:36.057600","SITE":"AFETR","TLE_LINE1":"1 45203U 20012AB  21242.51708400  .00306783  00000-0  15213-1 0  9995","CENTER_NAME":"EARTH","OBJECT_ID":"2020-012AB","BSTAR":"0.01521300000000","ARG_OF_PERICENTER":"153.8790","PERIOD":"94.998","MEAN_MOTION":"15.15824476","OBJECT_NAME":"STARLINK-1204","NORAD_CAT_ID":"45203","ECCENTRICITY":"0.00018390","LAUNCH_DATE":"2020-02-17","FILE":"3105635","MEAN_ELEMENT_THEORY":"SGP4","ELEMENT_SET_NO":"999","DECAY_DATE":null,"PERIAPSIS":"517.210","RA_OF_ASC_NODE":"240.7982","SEMIMAJOR_AXIS":"6896.614","INCLINATION":"53.0005","MEAN_MOTION_DDOT":"0.0000000000000","RCS_SIZE":"LARGE","EPHEMERIS_TYPE":"0","TIME_SYSTEM":"UTC","APOAPSIS":"519.747","MEAN_MOTION_DOT":"0.00306783","MEAN_ANOMALY":"206.2296","REV_AT_EPOCH":"8605","GP_ID":"183730831","TLE_LINE2":"2 45203  53.0005 240.7982 0001839 153.8790 206.2296 15.15824476 86054","COUNTRY_CODE":"US"},{"OBJECT_NAME":"STARLINK-1206","MEAN_MOTION":"15.06393988","PERIOD":"95.593","ARG_OF_PERICENTER":"62.8736","NORAD_CAT_ID":"45204","ECCENTRICITY":"0.00009160","ELEMENT_SET_NO":"999","MEAN_ELEMENT_THEORY":"SGP4","FILE":"3105635","LAUNCH_DATE":"2020-02-17","BSTAR":"0.00010055000000","OBJECT_ID":"2020-012AC","OBJECT_TYPE":"PAYLOAD","REF_FRAME":"TEME","CLASSIFICATION_TYPE":"U","EPOCH":"2021-08-30T07:46:48.309600","CENTER_NAME":"EARTH","TLE_LINE1":"1 45204U 20012AC  21242.32417025  .00001217  00000-0  10055-3 0  9990","SITE":"AFETR","TLE_LINE2":"2 45204  53.0528 244.3713 0000916  62.8736 297.2347 15.06393988 86080","COUNTRY_CODE":"US","MEAN_MOTION_DOT":"0.00001217","APOAPSIS":"547.866","MEAN_ANOMALY":"297.2347","REV_AT_EPOCH":"8608","GP_ID":"183729084","RCS_SIZE":"LARGE","MEAN_MOTION_DDOT":"0.0000000000000","EPHEMERIS_TYPE":"0","TIME_SYSTEM":"UTC","DECAY_DATE":null,"RA_OF_ASC_NODE":"244.3713","PERIAPSIS":"546.598","SEMIMAJOR_AXIS":"6925.367","INCLINATION":"53.0528"}];
